EUTELSAT 8 WEST B       
1 40875U 15039B   25285.91508027 -.00000077  00000+0  00000+0 0  9999
2 40875   0.0681   2.2952 0003776 201.0095 139.8660  1.00271478 37172
EUTELSAT 9B             
1 41310U 16005A   25285.90253003  .00000051  00000+0  00000+0 0  9999
2 41310   0.0713  68.7326 0003735 166.5475 120.3615  1.00272877 35635
EUTELSAT 65 WEST A      
1 41382U 16014A   25285.90372689 -.00000287  00000+0  00000+0 0  9992
2 41382   0.0822  47.7142 0002333 161.8143  72.3662  1.00271778 35054
EUTELSAT 117 WEST B     
1 41589U 16038B   25285.89339769 -.00000022  00000+0  00000+0 0  9994
2 41589   0.0105  75.9703 0000500  33.7880 116.5879  1.00269754 34187
EUTELSAT 172B           
1 42741U 17029B   25285.90660054 -.00000017  00000+0  00000+0 0  9996
2 42741   0.0157 180.0332 0000165  81.1272 258.9608  1.00269913 31253
EUTELSAT 7C             
1 44334U 19034B   25285.90253003  .00000037  00000+0  00000+0 0  9997
2 44334   0.0640 184.1942 0003265   5.8845 163.5627  1.00270466  4353
EUTELSAT 5 WEST B       
1 44624U 19067A   25285.91568693 -.00000053  00000+0  00000+0 0  9999
2 44624   0.0687  20.8099 0003313 188.4957 137.0855  1.00271124 21957
EUTELSAT KONNECT        
1 45027U 20005B   25285.90253003  .00000038  00000+0  00000+0 0  9998
2 45027   0.0685  91.6330 0001708 136.8403 125.3611  1.00269249 21849
